{"spkid": "20349068", "covariance": {"epoch": "2459207.5", "labels": ["e", "q", "tp", "node", "peri", "i"], "elements": [{"units": null, "title": "eccentricity", "value": ".4257234724385853", "name": "e", "sigma": 1.8469366620033e-08, "label": "e"}, {"units": "au", "title": "perihelion distance", "value": ".7597935685933128", "sigma": 2.34758491935777e-08, "name": "q", "label": "q"}, {"label": "tp", "sigma": 5.11113772716733e-06, "name": "tp", "units": "TDB", "value": "2459172.603469009674", "title": "time of perihelion passage"}, {"sigma": 4.02661448425088e-06, "name": "om", "value": "116.7201464866874", "title": "longitude of the ascending node", "units": "deg", "label": "node"}, {"label": "peri", "title": "argument of perihelion", "value": "105.4853396617204", "units": "deg", "sigma": 6.41577525546465e-06, "name": "w"}, {"label": "i", "units": "deg", "value": "38.24544706957896", "title": "inclination", "sigma": 5.58724399136933e-06, "name": "i"}], "data": [["3.411175033451898E-16", "-4.333511810990948E-16", "2.463028600276352E-15", "-3.018047756580566E-14", "-1.327794500293278E-14", "-4.332639713493129E-15"], ["-4.333511810990948E-16", "5.511154953596038E-16", "-3.519798053070636E-15", "3.819579562716146E-14", "1.724198783345632E-14", "5.514678329084867E-15"], ["2.463028600276352E-15", "-3.519798053070636E-15", "2.612372886607322E-11", "-1.877030816154458E-11", "3.196143987240523E-11", "-1.265920949622584E-13"], ["-3.018047756580566E-14", "3.819579562716146E-14", "-1.877030816154458E-11", "1.621362420477895E-11", "-2.226630087915446E-11", "-3.728130681429651E-13"], ["-1.327794500293278E-14", "1.724198783345632E-14", "3.196143987240523E-11", "-2.226630087915446E-11", "4.116217212863246E-11", "6.989257197197985E-13"], ["-4.332639713493129E-15", "5.514678329084867E-15", "-1.265920949622584E-13", "-3.728130681429651E-13", "6.989257197197985E-13", "3.121729541909267E-11"]]}, "elements": [{"units": null, "title": "eccentricity", "value": ".4257498982023031", "sigma": "1.8565E-8", "name": "e", "label": "e"}, {"label": "a", "units": "au", "title": "semi-major axis", "value": "1.3228073083879", "sigma": "2.426E-9", "name": "a"}, {"name": "q", "sigma": "2.3472E-8", "value": ".7596222315004891", "title": "perihelion distance", "units": "au", "label": "q"}, {"label": "i", "sigma": "5.5878E-6", "name": "i", "title": "inclination; angle with respect to x-y ecliptic plane", "value": "38.24694734919975", "units": "deg"}, {"label": "node", "name": "om", "sigma": "4.0268E-6", "title": "longitude of the ascending node", "value": "116.6827279767297", "units": "deg"}, {"name": "w", "sigma": "6.4441E-6", "units": "deg", "value": "105.4544230709168", "title": "argument of perihelion", "label": "peri"}, {"label": "M", "units": "deg", "title": "mean anomaly", "value": "233.7433941101357", "sigma": "5.2472E-6", "name": "ma"}, {"label": "tp", "title": "time of perihelion passage", "value": "2461395.392404957053", "units": "TDB", "sigma": "8.5429E-6", "name": "tp"}, {"name": "per", "sigma": "1.5288E-6", "units": "d", "title": "sidereal orbital period", "value": "555.7037217184646", "label": "period"}, {"label": "n", "value": ".6478272250665009", "title": "mean motion", "units": "deg/d", "sigma": "1.7822E-9", "name": "n"}, {"name": "ad", "sigma": "3.4589E-9", "title": "aphelion distance", "value": "1.885992385275312", "units": "au", "label": "Q"}], "epoch": "2461200.5"}